[{"OBJECT_NAME":"STARLINK-1805","OBJECT_ID":"2020-073AM","EPOCH":"2026-03-10T00:00:02.999808","MEAN_MOTION":15.51869565,"ECCENTRICITY":0.00030988,"INCLINATION":53.0508,"RA_OF_ASC_NODE":242.0948,"ARG_OF_PERICENTER":228.6165,"MEAN_ANOMALY":7.6638,"EPHEMERIS_TYPE":0,"CLASSIFICATION_TYPE":"U","NORAD_CAT_ID":46705,"ELEMENT_SET_NO":999,"REV_AT_EPOCH":585,"BSTAR":0.0025078624,"MEAN_MOTION_DOT":0.00155383,"MEAN_MOTION_DDOT":0},{"OBJECT_NAME":"CZ-2F R\/B","OBJECT_ID":"2026-024B","EPOCH":"2026-03-09T21:33:36.475776","MEAN_MOTION":15.34345765,"ECCENTRICITY":0.01743731,"INCLINATION":49.9895,"RA_OF_ASC_NODE":13.5528,"ARG_OF_PERICENTER":275.7155,"MEAN_ANOMALY":82.3946,"EPHEMERIS_TYPE":0,"CLASSIFICATION_TYPE":"U","NORAD_CAT_ID":67690,"ELEMENT_SET_NO":999,"REV_AT_EPOCH":472,"BSTAR":0.00037009281,"MEAN_MOTION_DOT":0.00020274,"MEAN_MOTION_DDOT":0}]
